*******************************************************************************
 Revised: April 12, 2021               Jupiter                              599
 
 PHYSICAL DATA:
  Mass x 10^22 (g)      = 189818722 +- 8817 Density (g/cm^3)  = 1.3262 +- .0003
  Equat. radius (1 bar) = 71492+-4 km       Polar radius (km)     = 66854+-10
  Vol. Mean Radius (km) = 69911+-6          Flattening            = 0.06487
  Geometric Albedo      = 0.52              Rocky core mass (Mc/M)= 0.0261
  Sid. rot. period (III)= 9h 55m 29.71 s    Sid. rot. rate (rad/s)= 0.00017585
  Mean solar day, hrs   = ~9.9259         
  GM (km^3/s^2)         = 126686531.900     GM 1-sigma (km^3/s^2) =  +- 1.2732
  Equ. grav, ge (m/s^2) = 24.79             Pol. grav, gp (m/s^2) =  28.34
  Vis. magnitude V(1,0) = -9.40
  Vis. mag. (opposition)= -2.70             Obliquity to orbit    =  3.13 deg
  Sidereal orbit period = 11.861982204 y    Sidereal orbit period = 4332.589 d
  Mean daily motion     = 0.0831294 deg/d   Mean orbit speed, km/s= 13.0697
  Atmos. temp. (1 bar)  = 165+-5 K          Escape speed, km/s    =  59.5           
  A_roche(ice)/Rp       =  2.76             Hill's sphere rad. Rp = 740
                                 Perihelion   Aphelion     Mean
  Solar Constant (W/m^2)         56           46           51
  Maximum Planetary IR (W/m^2)   13.7         13.4         13.6
  Minimum Planetary IR (W/m^2)   13.7         13.4         13.6
*******************************************************************************


*******************************************************************************
Ephemeris / WWW_USER Sun May 12 15:43:54 2024 Pasadena, USA      / Horizons
*******************************************************************************
Target body name: Jupiter (599)                   {source: jup365_merged}
Center body name: Sun (10)                        {source: jup365_merged}
Center-site name: BODY CENTER
*******************************************************************************
Start time      : A.D. 1979-Mar-02 13:59:24.3830 TDB
Stop  time      : A.D. 1979-Mar-08 13:59:24.3830 TDB
Step-size       : 60 minutes
*******************************************************************************
Center geodetic : 0.0, 0.0, 0.0                   {E-lon(deg),Lat(deg),Alt(km)}
Center cylindric: 0.0, 0.0, 0.0                   {E-lon(deg),Dxy(km),Dz(km)}
Center radii    : 695700.0, 695700.0, 695700.0 km {Equator_a, b, pole_c}
Output units    : KM-S
Calendar mode   : Mixed Julian/Gregorian
Output type     : GEOMETRIC cartesian states
Output format   : 2 (position and velocity)
Reference frame : Ecliptic of J2000.0
*******************************************************************************
            JDTDB,            Calendar Date (TDB),                      X,                      Y,                      Z,                     VX,                     VY,                     VZ,
**************************************************************************************************************************************************************************************************
$$SOE
2443937.999587766, A.D. 1979-Mar-05 11:59:24.3830, -4.821741118817003E+08,  6.274845871123767E+08,  8.221163556968123E+06, -1.052260314884979E+01, -7.362072556977352E+00,  2.661116654649538E-01,
2443938.041254433, A.D. 1979-Mar-05 12:59:24.3830, -4.822119924765851E+08,  6.274580828221891E+08,  8.222121553459078E+06, -1.052217482705034E+01, -7.362533156391166E+00,  2.661085607266558E-01,
2443938.082921099, A.D. 1979-Mar-05 13:59:24.3830, -4.822498715623798E+08,  6.274315768717275E+08,  8.223079538214624E+06, -1.052176476382202E+01, -7.362995358772692E+00,  2.661051305730284E-01,
2443938.124587766, A.D. 1979-Mar-05 14:59:24.3830, -4.822877492045803E+08,  6.274050692506089E+08,  8.224037509902030E+06, -1.052137276831215E+01, -7.363461724050901E+00,  2.661012863994565E-01,
2443938.166254433, A.D. 1979-Mar-05 15:59:24.3830, -4.823256254673460E+08,  6.273785599392903E+08,  8.224995466881186E+06, -1.052099828961724E+01, -7.363934773044392E+00,  2.660969462228180E-01,
2443938.207921099, A.D. 1979-Mar-05 16:59:24.3830, -4.823635004122152E+08,  6.273520489092973E+08,  8.225953407230854E+06, -1.052064042430830E+01, -7.364416938843639E+00,  2.660920362939492E-01,
2443938.249587766, A.D. 1979-Mar-05 17:59:24.3830, -4.824013740968587E+08,  6.273255361236260E+08,  8.226911328781575E+06, -1.052029792974446E+01, -7.364910518983843E+00,  2.660864926009379E-01,
2443938.291254433, A.D. 1979-Mar-05 18:59:24.3830, -4.824392465738910E+08,  6.272990215373157E+08,  8.227869229153067E+06, -1.051996924331165E+01, -7.365417628988419E+00,  2.660802622393628E-01,
2443938.332921099, A.D. 1979-Mar-05 19:59:24.3830, -4.824771178897622E+08,  6.272725050981839E+08,  8.228827105796427E+06, -1.051965250774191E+01, -7.365940158000055E+00,  2.660733046202619E-01,
2443938.374587766, A.D. 1979-Mar-05 20:59:24.3830, -4.825149880837523E+08,  6.272459867477175E+08,  8.229784956040323E+06, -1.051934560260853E+01, -7.366479727350594E+00,  2.660655924828546E-01,
2443938.416254433, A.D. 1979-Mar-05 21:59:24.3830, -4.825528571870896E+08,  6.272194664221058E+08,  8.230742777140528E+06, -1.051904618195362E+01, -7.367037653032482E+00,  2.660571126774913E-01,
2443938.457921099, A.D. 1979-Mar-05 22:59:24.3830, -4.825907252222155E+08,  6.271929440533997E+08,  8.231700566331655E+06, -1.051875171779762E+01, -7.367614913105909E+00,  2.660478666854735E-01,
2443938.499587766, A.D. 1979-Mar-05 23:59:24.3830, -4.826285922022154E+08,  6.271664195707786E+08,  8.232658320880234E+06, -1.051845954902371E+01, -7.368212121093952E+00,  2.660378708461177E-01,
2443938.541254433, A.D. 1979-Mar-06 00:59:24.3830, -4.826664581304349E+08,  6.271398929018992E+08,  8.233616038138628E+06, -1.051816693484860E+01, -7.368829506375227E+00,  2.660271562678527E-01,
2443938.582921099, A.D. 1979-Mar-06 01:59:24.3830, -4.827043230002943E+08,  6.271133639743037E+08,  8.234573715596884E+06, -1.051787111181348E+01, -7.369466902476098E+00,  2.660157684084150E-01,
2443938.624587766, A.D. 1979-Mar-06 02:59:24.3830, -4.827421867953132E+08,  6.270868327168511E+08,  8.235531350933611E+06, -1.051756935298147E+01, -7.370123743995068E+00,  2.660037663191646E-01,
2443938.666254433, A.D. 1979-Mar-06 03:59:24.3830, -4.827800494893499E+08,  6.270602990611471E+08,  8.236488942062795E+06, -1.051725902783745E+01, -7.370799072666786E+00,  2.659912215591533E-01,
2443938.707921099, A.D. 1979-Mar-06 04:59:24.3830, -4.828179110470554E+08,  6.270337629429320E+08,  8.237446487176478E+06, -1.051693766126972E+01, -7.371491552803580E+00,  2.659782167954194E-01,
2443938.749587766, A.D. 1979-Mar-06 05:59:24.3830, -4.828557714245348E+08,  6.270072243033984E+08,  8.238403984781921E+06, -1.051660298998385E+01, -7.372199496052796E+00,  2.659648441162497E-01,
2443938.791254433, A.D. 1979-Mar-06 06:59:24.3830, -4.828936305702060E+08,  6.269806830904024E+08,  8.239361433731884E+06, -1.051625301475620E+01, -7.372920895095373E+00,  2.659512030933602E-01,
2443938.832921099, A.D. 1979-Mar-06 07:59:24.3830, -4.829314884258360E+08,  6.269541392595389E+08,  8.240318833247870E+06, -1.051588604707134E+01, -7.373653465603231E+00,  2.659373986368427E-01,
2443938.874587766, A.D. 1979-Mar-06 08:59:24.3830, -4.829693449277331E+08,  6.269275927750520E+08,  8.241276182935417E+06, -1.051550074888341E+01, -7.374394695488093E+00,  2.659235386929617E-01,
2443938.916254433, A.D. 1979-Mar-06 09:59:24.3830, -4.830072000080683E+08,  6.269010436105570E+08,  8.242233482790321E+06, -1.051509616446926E+01, -7.375141900228847E+00,  2.659097318396988E-01,
2443938.957921099, A.D. 1979-Mar-06 10:59:24.3830, -4.830450535962967E+08,  6.268744917495549E+08,  8.243190733196646E+06, -1.051467174357047E+01, -7.375892282871825E+00,  2.658960848384413E-01,
2443938.999587766, A.D. 1979-Mar-06 11:59:24.3830, -4.830829056206440E+08,  6.268479371857229E+08,  8.244147934916228E+06, -1.051422735521756E+01, -7.376642997167012E+00,  2.658827002027531E-01,
2443939.041254433, A.D. 1979-Mar-06 12:59:24.3830, -4.831207560096273E+08,  6.268213799229774E+08,  8.245105089068383E+06, -1.051376329177068E+01, -7.377391212235310E+00,  2.658696738471926E-01,
2443939.082921099, A.D. 1979-Mar-06 13:59:24.3830, -4.831586046935701E+08,  6.267948199753008E+08,  8.246062197102815E+06, -1.051328026278648E+01, -7.378134177151507E+00,  2.658570928808750E-01,
2443939.124587766, A.D. 1979-Mar-06 14:59:24.3830, -4.831964516060779E+08,  6.267682573663398E+08,  8.247019260763764E+06, -1.051277937835136E+01, -7.378869283858457E+00,  2.658450336117868E-01,
2443939.166254433, A.D. 1979-Mar-06 15:59:24.3830, -4.832342966854339E+08,  6.267416921287838E+08,  8.247976282047957E+06, -1.051226212156786E+01, -7.379594126872636E+00,  2.658335598283501E-01,
2443939.207921099, A.D. 1979-Mar-06 16:59:24.3830, -4.832721398758760E+08,  6.267151243035328E+08,  8.248933263157427E+06, -1.051173031006540E+01, -7.380306558258618E+00,  2.658227214227220E-01,
2443939.249587766, A.D. 1979-Mar-06 17:59:24.3830, -4.833099811287153E+08,  6.266885539386823E+08,  8.249890206447303E+06, -1.051118604692831E+01, -7.381004736284279E+00,  2.658125534132010E-01,
2443939.291254433, A.D. 1979-Mar-06 18:59:24.3830, -4.833478204032620E+08,  6.266619810883447E+08,  8.250847114370733E+06, -1.051063166259681E+01, -7.381687165947574E+00,  2.658030754064939E-01,
2443939.332921099, A.D. 1979-Mar-06 19:59:24.3830, -4.833856576675299E+08,  6.266354058113430E+08,  8.251803989423782E+06, -1.051006965153269E+01, -7.382352729099470E+00,  2.657942915078708E-01,
2443939.374587766, A.D. 1979-Mar-06 20:59:24.3830, -4.834234928987158E+08,  6.266088281698203E+08,  8.252760834089756E+06, -1.050950261134292E+01, -7.383000701067076E+00,  2.657861906288712E-01,
2443939.416254433, A.D. 1979-Mar-06 21:59:24.3830, -4.834613260834825E+08,  6.265822482278185E+08,  8.253717650785625E+06, -1.050893319840905E+01, -7.383630749377594E+00,  2.657787470454909E-01,
